{
  "geometry": {
    "coordinates": [
      [
        [
          [
            2.66853214,
            43.1247024
          ],
          [
            2.66920883,
            43.12509235
          ],
          [
            2.67001349,
            43.12554053
          ],
          [
            2.67108188,
            43.12608236
          ],
          [
            2.67178201,
            43.12644151
          ],
          [
            2.67246583,
            43.12681251
          ],
          [
            2.6738301,
            43.12757826
          ],
          [
            2.67407552,
            43.12691722
          ],
          [
            2.67433404,
            43.12623954
          ],
          [
            2.67522642,
            43.12399291
          ],
          [
            2.67517576,
            43.12346275
          ],
          [
            2.67508998,
            43.12340369
          ],
          [
            2.67499572,
            43.12337535
          ],
          [
            2.67457651,
            43.1233603
          ],
          [
            2.67341456,
            43.12336837
          ],
          [
            2.67329948,
            43.12335642
          ],
          [
            2.67314342,
            43.12324832
          ],
          [
            2.67301204,
            43.12312602
          ],
          [
            2.67280252,
            43.12295181
          ],
          [
            2.67215953,
            43.12250968
          ],
          [
            2.67145023,
            43.12197553
          ],
          [
            2.67119213,
            43.12162534
          ],
          [
            2.6704649,
            43.12072439
          ],
          [
            2.67015065,
            43.12043141
          ],
          [
            2.66949988,
            43.12049581
          ],
          [
            2.66856609,
            43.12064135
          ],
          [
            2.66795714,
            43.12085036
          ],
          [
            2.66696865,
            43.12123393
          ],
          [
            2.66519977,
            43.12196656
          ],
          [
            2.66443027,
            43.12227659
          ],
          [
            2.66367317,
            43.12254282
          ],
          [
            2.66351209,
            43.12286716
          ],
          [
            2.66421097,
            43.12313323
          ],
          [
            2.66460111,
            43.12326014
          ],
          [
            2.66568736,
            43.1236034
          ],
          [
            2.66605922,
            43.12371024
          ],
          [
            2.66644391,
            43.12384567
          ],
          [
            2.66695283,
            43.12402609
          ],
          [
            2.66765848,
            43.12428307
          ],
          [
            2.66853214,
            43.1247024
          ]
        ]
      ]
    ],
    "type": "MultiPolygon"
  },
  "properties": {
    "approximate_area_ha": 33.82,
    "asset_id": "FR_RPG23_MINERVOIS_01",
    "crop": "vineyard",
    "geometry_derivation": "original RPG 2023 vineyard parcel geometry",
    "geometry_role": "crop_mask",
    "region": "languedoc",
    "rpg_code_cultu": "VRC",
    "rpg_code_group": "21",
    "rpg_id_parcel": "331364",
    "rpg_surf_parc_ha": 33.82,
    "seed_area": "minervois",
    "source": "IGN RPG 2023 WFS",
    "source_layer": "RPG.2023:parcelles_graphiques",
    "source_license_note": "See IGN/cartes.gouv.fr RPG terms of use",
    "source_url": "https://data.geopf.fr/wfs"
  },
  "type": "Feature"
}
