{
  "geometry": {
    "coordinates": [
      [
        [
          [
            -0.17475523,
            44.94969126
          ],
          [
            -0.1747551,
            44.94968888
          ],
          [
            -0.17314177,
            44.94894581
          ],
          [
            -0.17265975,
            44.94938633
          ],
          [
            -0.17435742,
            44.95013654
          ],
          [
            -0.17303002,
            44.95165291
          ],
          [
            -0.17364264,
            44.95192121
          ],
          [
            -0.17416645,
            44.95215898
          ],
          [
            -0.17599498,
            44.95101003
          ],
          [
            -0.17609235,
            44.95090139
          ],
          [
            -0.17613375,
            44.95093747
          ],
          [
            -0.17722396,
            44.95015054
          ],
          [
            -0.17731355,
            44.95061832
          ],
          [
            -0.17644867,
            44.95123431
          ],
          [
            -0.17699427,
            44.95167824
          ],
          [
            -0.17733061,
            44.9518069
          ],
          [
            -0.17768356,
            44.9519327
          ],
          [
            -0.17759737,
            44.95201146
          ],
          [
            -0.17811396,
            44.95223987
          ],
          [
            -0.17890363,
            44.95258999
          ],
          [
            -0.17768056,
            44.9534202
          ],
          [
            -0.17766052,
            44.95342107
          ],
          [
            -0.17738921,
            44.95328459
          ],
          [
            -0.1767326,
            44.95298507
          ],
          [
            -0.17653987,
            44.95284277
          ],
          [
            -0.17623503,
            44.95306247
          ],
          [
            -0.17623014,
            44.95307127
          ],
          [
            -0.17572362,
            44.95285715
          ],
          [
            -0.17543441,
            44.95332317
          ],
          [
            -0.17542139,
            44.95337559
          ],
          [
            -0.17540151,
            44.95337358
          ],
          [
            -0.17527072,
            44.95361335
          ],
          [
            -0.17460199,
            44.95354424
          ],
          [
            -0.1730398,
            44.95335043
          ],
          [
            -0.17030298,
            44.95304707
          ],
          [
            -0.17042166,
            44.95200861
          ],
          [
            -0.17046026,
            44.95185968
          ],
          [
            -0.16866304,
            44.95109636
          ],
          [
            -0.16857957,
            44.95107224
          ],
          [
            -0.16852219,
            44.95104738
          ],
          [
            -0.16856165,
            44.95102074
          ],
          [
            -0.16874725,
            44.95106762
          ],
          [
            -0.16892235,
            44.95110582
          ],
          [
            -0.16979942,
            44.95049611
          ],
          [
            -0.17075955,
            44.94981189
          ],
          [
            -0.17200187,
            44.94910173
          ],
          [
            -0.17190114,
            44.94901313
          ],
          [
            -0.17178822,
            44.94891622
          ],
          [
            -0.17283199,
            44.94837622
          ],
          [
            -0.17288443,
            44.94835295
          ],
          [
            -0.17332559,
            44.94849532
          ],
          [
            -0.17352136,
            44.94857318
          ],
          [
            -0.17437775,
            44.94869654
          ],
          [
            -0.17521296,
            44.94880142
          ],
          [
            -0.17528772,
            44.94912158
          ],
          [
            -0.1747634,
            44.94965765
          ],
          [
            -0.17475523,
            44.94969126
          ]
        ]
      ]
    ],
    "type": "MultiPolygon"
  },
  "properties": {
    "approximate_area_ha": 20.98,
    "asset_id": "FR_RPG23_BORDEAUX_RIGHT_BANK_02",
    "crop": "vineyard",
    "geometry_derivation": "original RPG 2023 vineyard parcel geometry",
    "geometry_role": "crop_mask",
    "region": "bordeaux",
    "rpg_code_cultu": "VRC",
    "rpg_code_group": "21",
    "rpg_id_parcel": "1035863",
    "rpg_surf_parc_ha": 20.98,
    "seed_area": "bordeaux_right_bank",
    "source": "IGN RPG 2023 WFS",
    "source_layer": "RPG.2023:parcelles_graphiques",
    "source_license_note": "See IGN/cartes.gouv.fr RPG terms of use",
    "source_url": "https://data.geopf.fr/wfs"
  },
  "type": "Feature"
}
