{
  "geometry": {
    "coordinates": [
      [
        [
          2.668388481838655,
          43.12484876455797
        ],
        [
          2.6698646671629613,
          43.125683888395436
        ],
        [
          2.671638287158494,
          43.12658765433437
        ],
        [
          2.6736805435333513,
          43.127721210970705
        ],
        [
          2.6737664079809087,
          43.127752209126875
        ],
        [
          2.673885618846807,
          43.12775370518852
        ],
        [
          2.6739917754847573,
          43.127713948780446
        ],
        [
          2.6740673646910955,
          43.12762551823742
        ],
        [
          2.6745704922298894,
          43.12628893069841
        ],
        [
          2.6754624979281165,
          43.12404322130307
        ],
        [
          2.6754716863545123,
          43.12398033464713
        ],
        [
          2.6754135805627866,
          43.12341706022881
        ],
        [
          2.6753601078048668,
          43.123343585692844
        ],
        [
          2.6752413449316905,
          43.12326176985547
        ],
        [
          2.6750354910131393,
          43.123197625489595
        ],
        [
          2.6745741772523077,
          43.12318021174071
        ],
        [
          2.6734115153278757,
          43.12318615686985
        ],
        [
          2.6729707896336583,
          43.12282050167282
        ],
        [
          2.672331871987282,
          43.12238117274464
        ],
        [
          2.671650319276733,
          43.12186791958888
        ],
        [
          2.6714037590742286,
          43.121533675642375
        ],
        [
          2.67067652703813,
          43.12063272696627
        ],
        [
          2.6703287784899423,
          43.1203072808397
        ],
        [
          2.6702536975676163,
          43.120267896987244
        ],
        [
          2.6701871734210982,
          43.12025331200735
        ],
        [
          2.6694487149313315,
          43.12031965685107
        ],
        [
          2.6684617775006156,
          43.1204782678576
        ],
        [
          2.6678420548756128,
          43.120691213670455
        ],
        [
          2.666853566731093,
          43.1210747826931
        ],
        [
          2.664317740709464,
          43.12211638759458
        ],
        [
          2.6635458489364487,
          43.12238875381463
        ],
        [
          2.6634626092826226,
          43.12244984115679
        ],
        [
          2.663266683000258,
          43.122856210765285
        ],
        [
          2.6632875257773843,
          43.122940480587154
        ],
        [
          2.66337831134384,
          43.12301826202819
        ],
        [
          2.6641111826637216,
          43.12329782590968
        ],
        [
          2.6659609434038423,
          43.12387545859515
        ],
        [
          2.6675359432113632,
          43.1244395717617
        ],
        [
          2.668388481838655,
          43.12484876455797
        ]
      ]
    ],
    "type": "Polygon"
  },
  "properties": {
    "approximate_area_ha": 39.1835,
    "asset_id": "FR_RPG23_MINERVOIS_01",
    "crop": "vineyard",
    "geometry_derivation": "20 m outward buffer around RPG parcel",
    "geometry_role": "aoi",
    "region": "languedoc",
    "rpg_code_cultu": "VRC",
    "rpg_code_group": "21",
    "rpg_id_parcel": "331364",
    "rpg_surf_parc_ha": 33.82,
    "seed_area": "minervois",
    "source": "IGN RPG 2023 WFS",
    "source_layer": "RPG.2023:parcelles_graphiques",
    "source_license_note": "See IGN/cartes.gouv.fr RPG terms of use",
    "source_url": "https://data.geopf.fr/wfs"
  },
  "type": "Feature"
}
